ONEWEB-0395             
1 50475U 21132G   26168.54851767 -.00000398  00000+0 -11588-2 0  9992
2 50475  87.8887  20.9954 0002036  88.9214 271.2147 13.11419419215760
ONEWEB-0396             
1 50476U 21132H   26168.47074537  .00000020  00000+0  18826-4 0  9991
2 50476  87.9172 335.3980 0001914  87.7914 272.3438 13.18684916221674
ONEWEB-0397             
1 50477U 21132J   26168.48592290  .00000064  00000+0  12906-3 0  9994
2 50477  87.9171 335.3951 0001840  84.7177 275.4165 13.18685557221659
ONEWEB-0398             
1 50478U 21132K   26168.51631247  .00000206  00000+0  54634-3 0  9997
2 50478  87.8892  20.9924 0001963  94.2490 265.8862 13.11414333215651
ONEWEB-0399             
1 50479U 21132L   26168.50275909  .00000539  00000+0  14836-2 0  9994
2 50479  87.8894  21.0060 0002130  74.2449 285.8914 13.11416018215647
ONEWEB-0400             
1 50480U 21132M   26168.46400596 -.00000053  00000+0 -16705-3 0  9994
2 50480  87.9172 335.3892 0001883  97.9781 262.1565 13.18684905221644
ONEWEB-0401             
1 50481U 21132N   26168.50952853  .00000033  00000+0  50239-4 0  9995
2 50481  87.9172 335.3775 0001653  89.1653 270.9668 13.18685101221652
ONEWEB-0402             
1 50482U 21132P   26168.47244159  .00000003  00000+0 -24964-4 0  9999
2 50482  87.9170 335.3740 0001500  80.9745 279.1556 13.18685978221676
ONEWEB-0403             
1 50483U 21132Q   26168.49772544  .00000066  00000+0  13546-3 0  9997
2 50483  87.9171 335.3934 0001975  90.7160 269.4199 13.18685021221639
ONEWEB-0404             
1 50484U 21132R   26168.48409978  .00000086  00000+0  20652-3 0  9993
2 50484  87.8889  21.0082 0002133  82.4020 277.7350 13.11419334215738
ONEWEB-0405             
1 50485U 21132S   26168.51121850 -.00000020  00000+0 -83622-4 0  9995
2 50485  87.9174 335.3753 0002057 105.2832 254.8528 13.18686502222037
ONEWEB-0406             
1 50486U 21132T   26168.50278447  .00000064  00000+0  12918-3 0  9995
2 50486  87.9167 335.3933 0002343  85.8437 274.2963 13.18686073221662
ONEWEB-0407             
1 50487U 21132U   26168.49605624  .00000955  00000+0  23902-2 0  9998
2 50487  87.9172 335.3869 0001659  92.5006 267.6316 13.18682840221603
ONEWEB-0409             
1 50488U 21132V   26168.10091075  .00000130  00000+0  33060-3 0  9998
2 50488  87.8893  21.0724 0002119  85.8977 274.2393 13.11420380215576
ONEWEB-0412             
1 50489U 21132W   26168.48423405  .00000055  00000+0  10665-3 0  9998
2 50489  87.9168 335.3973 0001629  86.0462 274.0856 13.18685398221698
ONEWEB-0413             
1 50490U 21132X   26168.48931114  .00000055  00000+0  10695-3 0  9994
2 50490  87.9160 335.3952 0001543  91.1478 268.9831 13.18686266221632
ONEWEB-0414             
1 50491U 21132Y   26168.47412290 -.00000026  00000+0 -97814-4 0  9992
2 50491  87.9174 335.3799 0001810  87.1237 273.0103 13.18685338221663
ONEWEB-0417             
1 50492U 21132Z   26168.48255174  .00000038  00000+0  62426-4 0  9992
2 50492  87.9163 335.3978 0002078  90.7530 269.3840 13.18685623221645
ONEWEB-0418             
1 50493U 21132AA  26168.41664126  .00000074  00000+0  15381-3 0  9994
2 50493  87.9170 335.4109 0002149  91.1340 269.0038 13.18685094221697
ONEWEB-0419             
1 50494U 21132AB  26168.51113265  .00000047  00000+0  85296-4 0  9992
2 50494  87.9171 335.3916 0002139  97.0436 263.0940 13.18666170221627
ONEWEB-0420             
1 50495U 21132AC  26168.47580338  .00000052  00000+0  98590-4 0  9994
2 50495  87.9162 335.4014 0001672  96.7379 263.3944 13.18686119221612
ONEWEB-0421             
1 50496U 21132AD  26168.46906061  .00000010  00000+0 -77618-5 0  9993
2 50496  87.9168 335.4004 0001761  81.1363 278.9968 13.18685005221653
ONEWEB-0424             
1 50497U 21132AE  26168.50615813  .00000045  00000+0  80864-4 0  9994
2 50497  87.9170 335.3911 0002113 100.5367 259.6003 13.18685678221680
ONEWEB-0426             
1 50498U 21132AF  26168.46483475 -.00000258  00000+0 -68786-3 0  9993
2 50498  87.9170 335.3904 0002217  76.1734 283.9645 13.18686277221626
ONEWEB-0427             
1 50499U 21132AG  26168.50447271  .00000087  00000+0  18767-3 0  9995
2 50499  87.9172 335.3714 0002046  89.9758 270.1608 13.18685234221658
ONEWEB-0429             
1 50500U 21132AH  26168.49098207  .00000038  00000+0  63933-4 0  9999
2 50500  87.9164 335.3984 0001755  94.5427 265.5906 13.18686174221622
ONEWEB-0430             
1 50501U 21132AJ  26168.47917513  .00000045  00000+0  81988-4 0  9996
2 50501  87.9163 335.3989 0001821 101.2093 258.9244 13.18686126221668
ONEWEB-0432             
1 50502U 21132AK  26168.44689662  .00000100  00000+0  22558-3 0  9994
2 50502  87.9169 335.3836 0002194 108.7159 251.4211 13.17154783221610
ONEWEB-0440             
1 50503U 21132AL  26168.49941079  .00000084  00000+0  18094-3 0  9994
2 50503  87.9172 335.3912 0001566  86.9957 273.1354 13.18685172221616
ONEWEB-0450             
1 50504U 21132AM  26168.49280951  .00000083  00000+0  17680-3 0  9999
2 50504  87.9161 335.3977 0001714  97.5369 262.5958 13.18686307221642
